{
  "type": "FeatureCollection",
  "name": "Grid atlas schematic capacity corridors",
  "updated_at": "2026-07-26",
  "method": "Straight lines join regional representative points. They encode documented transfer relationships and never claim to reproduce a conductor route.",
  "features": [
    {
      "type": "Feature",
      "geometry": {
        "type": "LineString",
        "coordinates": [[141.35, 43.05], [140.9, 39.7]]
      },
      "properties": {
        "REGION_KEY": "japon",
        "ASSET_KIND": "model_corridor",
        "SOURCE_ID": "jp-occto-intertie-capacity-2026",
        "SOURCE_CLASS": "official",
        "EVIDENCE": "modelled",
        "NAME": "Interconexión Hokkaidō-Honshū",
        "FROM_NAME": "Hokkaidō",
        "TO_NAME": "Tōhoku",
        "CAPACITY_FORWARD_MW": 900,
        "CAPACITY_REVERSE_MW": 700,
        "CAPACITY_CONTEXT": "Capacidad operativa, agosto de 2026, día laborable y horas diurnas",
        "STATUS": "operating",
        "SOURCE_DATASET": "OCCTO 2026-2035 interconnection operating capacity",
        "SOURCE_URL": "https://www.occto.or.jp/assets/renkeisenriyou/oshirase/2025/files/oshirase_20260311_1_2026-2035_unyouyouryou.pdf",
        "SOURCE_DATE": "2026-03-11",
        "SOURCE_LICENSE": "OCCTO publication terms; facts summarised with attribution",
        "GEOMETRY_CONFIDENCE": "schematic-regional-centroids",
        "NOTE": "La línea recta es un enlace de capacidad entre áreas, no el trazado físico."
      }
    },
    {
      "type": "Feature",
      "geometry": {
        "type": "LineString",
        "coordinates": [[140.9, 39.7], [139.7, 35.7]]
      },
      "properties": {
        "REGION_KEY": "japon",
        "ASSET_KIND": "model_corridor",
        "SOURCE_ID": "jp-occto-intertie-capacity-2026",
        "SOURCE_CLASS": "official",
        "EVIDENCE": "modelled",
        "NAME": "Interconexión Tōhoku-Tokio",
        "FROM_NAME": "Tōhoku",
        "TO_NAME": "Tokio",
        "CAPACITY_FORWARD_MW": 2360,
        "CAPACITY_REVERSE_MW": 5250,
        "CAPACITY_CONTEXT": "Capacidad operativa, agosto de 2026, día laborable y horas diurnas",
        "STATUS": "operating",
        "SOURCE_DATASET": "OCCTO 2026-2035 interconnection operating capacity",
        "SOURCE_URL": "https://www.occto.or.jp/assets/renkeisenriyou/oshirase/2025/files/oshirase_20260311_1_2026-2035_unyouyouryou.pdf",
        "SOURCE_DATE": "2026-03-11",
        "SOURCE_LICENSE": "OCCTO publication terms; facts summarised with attribution",
        "GEOMETRY_CONFIDENCE": "schematic-regional-centroids",
        "NOTE": "La línea recta es un enlace de capacidad entre áreas, no el trazado físico."
      }
    },
    {
      "type": "Feature",
      "geometry": {
        "type": "LineString",
        "coordinates": [[139.7, 35.7], [137.4, 35.2]]
      },
      "properties": {
        "REGION_KEY": "japon",
        "ASSET_KIND": "model_corridor",
        "SOURCE_ID": "jp-occto-intertie-capacity-2026",
        "SOURCE_CLASS": "official",
        "EVIDENCE": "modelled",
        "NAME": "Interconexión Tokio-Chūbu",
        "FROM_NAME": "Tokio · 50 Hz",
        "TO_NAME": "Chūbu · 60 Hz",
        "CAPACITY_FORWARD_MW": 1800,
        "CAPACITY_REVERSE_MW": 1800,
        "CAPACITY_CONTEXT": "Capacidad operativa, agosto de 2026, día laborable y horas diurnas",
        "STATUS": "operating",
        "LINE_TYPE": "frequency_conversion",
        "SOURCE_DATASET": "OCCTO 2026-2035 interconnection operating capacity",
        "SOURCE_URL": "https://www.occto.or.jp/assets/renkeisenriyou/oshirase/2025/files/oshirase_20260311_1_2026-2035_unyouyouryou.pdf",
        "SOURCE_DATE": "2026-03-11",
        "SOURCE_LICENSE": "OCCTO publication terms; facts summarised with attribution",
        "GEOMETRY_CONFIDENCE": "schematic-regional-centroids",
        "NOTE": "Agrega los convertidores de frecuencia indicados por OCCTO; no representa su ruta física."
      }
    },
    {
      "type": "Feature",
      "geometry": {
        "type": "LineString",
        "coordinates": [[135.5, 34.7], [133.3, 34.4]]
      },
      "properties": {
        "REGION_KEY": "japon",
        "ASSET_KIND": "model_corridor",
        "SOURCE_ID": "jp-occto-intertie-capacity-2026",
        "SOURCE_CLASS": "official",
        "EVIDENCE": "modelled",
        "NAME": "Interconexión Kansai-Chūgoku",
        "FROM_NAME": "Kansai",
        "TO_NAME": "Chūgoku",
        "CAPACITY_FORWARD_MW": 4650,
        "CAPACITY_REVERSE_MW": 4700,
        "CAPACITY_CONTEXT": "Capacidad operativa, agosto de 2026, día laborable y horas diurnas",
        "STATUS": "operating",
        "SOURCE_DATASET": "OCCTO 2026-2035 interconnection operating capacity",
        "SOURCE_URL": "https://www.occto.or.jp/assets/renkeisenriyou/oshirase/2025/files/oshirase_20260311_1_2026-2035_unyouyouryou.pdf",
        "SOURCE_DATE": "2026-03-11",
        "SOURCE_LICENSE": "OCCTO publication terms; facts summarised with attribution",
        "GEOMETRY_CONFIDENCE": "schematic-regional-centroids",
        "NOTE": "La línea recta es un enlace de capacidad entre áreas, no el trazado físico."
      }
    },
    {
      "type": "Feature",
      "geometry": {
        "type": "LineString",
        "coordinates": [[135.5, 34.7], [134.0, 33.8]]
      },
      "properties": {
        "REGION_KEY": "japon",
        "ASSET_KIND": "model_corridor",
        "SOURCE_ID": "jp-occto-intertie-capacity-2026",
        "SOURCE_CLASS": "official",
        "EVIDENCE": "modelled",
        "NAME": "Interconexión Kansai-Shikoku",
        "FROM_NAME": "Kansai",
        "TO_NAME": "Shikoku",
        "CAPACITY_FORWARD_MW": 610,
        "CAPACITY_REVERSE_MW": 0,
        "CAPACITY_CONTEXT": "Capacidad operativa, agosto de 2026, día laborable y horas diurnas",
        "STATUS": "operating",
        "SOURCE_DATASET": "OCCTO 2026-2035 interconnection operating capacity",
        "SOURCE_URL": "https://www.occto.or.jp/assets/renkeisenriyou/oshirase/2025/files/oshirase_20260311_1_2026-2035_unyouyouryou.pdf",
        "SOURCE_DATE": "2026-03-11",
        "SOURCE_LICENSE": "OCCTO publication terms; facts summarised with attribution",
        "GEOMETRY_CONFIDENCE": "schematic-regional-centroids",
        "NOTE": "La capacidad publicada es direccional y depende del periodo operativo."
      }
    },
    {
      "type": "Feature",
      "geometry": {
        "type": "LineString",
        "coordinates": [[133.3, 34.4], [134.0, 33.8]]
      },
      "properties": {
        "REGION_KEY": "japon",
        "ASSET_KIND": "model_corridor",
        "SOURCE_ID": "jp-occto-intertie-capacity-2026",
        "SOURCE_CLASS": "official",
        "EVIDENCE": "modelled",
        "NAME": "Interconexión Chūgoku-Shikoku",
        "FROM_NAME": "Chūgoku",
        "TO_NAME": "Shikoku",
        "CAPACITY_FORWARD_MW": 1450,
        "CAPACITY_REVERSE_MW": 1200,
        "CAPACITY_CONTEXT": "Capacidad operativa, agosto de 2026, día laborable y horas diurnas",
        "STATUS": "operating",
        "SOURCE_DATASET": "OCCTO 2026-2035 interconnection operating capacity",
        "SOURCE_URL": "https://www.occto.or.jp/assets/renkeisenriyou/oshirase/2025/files/oshirase_20260311_1_2026-2035_unyouyouryou.pdf",
        "SOURCE_DATE": "2026-03-11",
        "SOURCE_LICENSE": "OCCTO publication terms; facts summarised with attribution",
        "GEOMETRY_CONFIDENCE": "schematic-regional-centroids",
        "NOTE": "La línea recta es un enlace de capacidad entre áreas, no el trazado físico."
      }
    },
    {
      "type": "Feature",
      "geometry": {
        "type": "LineString",
        "coordinates": [[133.3, 34.4], [130.7, 33.2]]
      },
      "properties": {
        "REGION_KEY": "japon",
        "ASSET_KIND": "model_corridor",
        "SOURCE_ID": "jp-occto-intertie-capacity-2026",
        "SOURCE_CLASS": "official",
        "EVIDENCE": "modelled",
        "NAME": "Interconexión Chūgoku-Kyūshū",
        "FROM_NAME": "Chūgoku",
        "TO_NAME": "Kyūshū",
        "CAPACITY_FORWARD_MW": 2340,
        "CAPACITY_REVERSE_MW": 540,
        "CAPACITY_CONTEXT": "Capacidad operativa, agosto de 2026, día laborable y horas diurnas",
        "STATUS": "operating",
        "SOURCE_DATASET": "OCCTO 2026-2035 interconnection operating capacity",
        "SOURCE_URL": "https://www.occto.or.jp/assets/renkeisenriyou/oshirase/2025/files/oshirase_20260311_1_2026-2035_unyouyouryou.pdf",
        "SOURCE_DATE": "2026-03-11",
        "SOURCE_LICENSE": "OCCTO publication terms; facts summarised with attribution",
        "GEOMETRY_CONFIDENCE": "schematic-regional-centroids",
        "NOTE": "La capacidad publicada es direccional y depende del periodo operativo."
      }
    },
    {
      "type": "Feature",
      "geometry": {
        "type": "LineString",
        "coordinates": [[96.4, 29.6], [113.3, 23.1]]
      },
      "properties": {
        "REGION_KEY": "china",
        "ASSET_KIND": "model_corridor",
        "SOURCE_ID": "cn-csg-tibet-greater-bay-uhvdc-2025",
        "SOURCE_CLASS": "official",
        "EVIDENCE": "modelled",
        "NAME": "Tíbet sudoriental-Gran Área de la Bahía",
        "FROM_NAME": "Tíbet sudoriental",
        "TO_NAME": "Guangdong-Hong Kong-Macao Greater Bay Area",
        "VOLTAGE": 800,
        "LENGTH_KM": 2681.3,
        "STATUS": "construction",
        "LINE_TYPE": "HVDC",
        "SOURCE_DATASET": "China Southern Power Grid project procurement notice",
        "SOURCE_URL": "https://www.bidding.csg.cn/zbgg/1200417914.jhtml",
        "SOURCE_DATE": "2025-12-12",
        "SOURCE_LICENSE": "Official publication; facts summarised and linked, geometry not reproduced",
        "GEOMETRY_CONFIDENCE": "schematic-regional-centroids",
        "NOTE": "El anuncio oficial confirma tensión, longitud y terminales; la línea recta es únicamente esquemática."
      }
    },
    {
      "type": "Feature",
      "geometry": {
        "type": "LineString",
        "coordinates": [[126.599, 34.574], [126.521, 33.499]]
      },
      "properties": {
        "REGION_KEY": "corea-del-sur",
        "ASSET_KIND": "model_corridor",
        "SOURCE_ID": "kr-kepco-jeju-hvdc-links-2025",
        "SOURCE_CLASS": "official",
        "EVIDENCE": "modelled",
        "NAME": "HVDC #1 Haenam-Jeju",
        "FROM_NAME": "Haenam",
        "TO_NAME": "Jeju",
        "VOLTAGE": 180,
        "CAPACITY_FORWARD_MW": 300,
        "CAPACITY_CONTEXT": "Capacidad nominal publicada; enlace en servicio desde 1998",
        "LENGTH_KM": 101,
        "STATUS": "operating",
        "LINE_TYPE": "HVDC submarine",
        "SOURCE_DATASET": "KEPCO · mainland-Jeju HVDC interconnections",
        "SOURCE_URL": "https://www.kepco.co.kr/KEPCO_FILE/html/2025_01/202501.pdf",
        "SOURCE_DATE": "2025-01",
        "SOURCE_LICENSE": "Official publication terms; facts summarised with attribution",
        "GEOMETRY_CONFIDENCE": "schematic-terminal-locality-centroids",
        "NOTE": "Los terminales, tensión, capacidad y longitud son oficiales; la recta no es la ruta del cable."
      }
    },
    {
      "type": "Feature",
      "geometry": {
        "type": "LineString",
        "coordinates": [[126.263, 34.486], [126.276, 33.345]]
      },
      "properties": {
        "REGION_KEY": "corea-del-sur",
        "ASSET_KIND": "model_corridor",
        "SOURCE_ID": "kr-kepco-jeju-hvdc-links-2025",
        "SOURCE_CLASS": "official",
        "EVIDENCE": "modelled",
        "NAME": "HVDC #2 Jindo-Oeste de Jeju",
        "FROM_NAME": "Jindo",
        "TO_NAME": "Oeste de Jeju",
        "VOLTAGE": 250,
        "CAPACITY_FORWARD_MW": 400,
        "CAPACITY_CONTEXT": "Capacidad nominal publicada; enlace en servicio desde 2013",
        "LENGTH_KM": 113,
        "STATUS": "operating",
        "LINE_TYPE": "HVDC submarine",
        "SOURCE_DATASET": "KEPCO · mainland-Jeju HVDC interconnections",
        "SOURCE_URL": "https://www.kepco.co.kr/KEPCO_FILE/html/2025_01/202501.pdf",
        "SOURCE_DATE": "2025-01",
        "SOURCE_LICENSE": "Official publication terms; facts summarised with attribution",
        "GEOMETRY_CONFIDENCE": "schematic-terminal-locality-centroids",
        "NOTE": "KEPCO publica 101 km submarinos y 12 km terrestres; la recta no reproduce ese recorrido."
      }
    },
    {
      "type": "Feature",
      "geometry": {
        "type": "LineString",
        "coordinates": [[126.755, 34.311], [126.586, 33.522]]
      },
      "properties": {
        "REGION_KEY": "corea-del-sur",
        "ASSET_KIND": "model_corridor",
        "SOURCE_ID": "kr-kepco-jeju-hvdc-links-2025",
        "SOURCE_CLASS": "official",
        "EVIDENCE": "modelled",
        "NAME": "HVDC #3 Wando-Este de Jeju",
        "FROM_NAME": "Wando",
        "TO_NAME": "Este de Jeju",
        "VOLTAGE": 150,
        "CAPACITY_FORWARD_MW": 200,
        "CAPACITY_REVERSE_MW": 200,
        "CAPACITY_CONTEXT": "VSC bidireccional; operación comercial desde noviembre de 2024",
        "LENGTH_KM": 98,
        "STATUS": "operating",
        "LINE_TYPE": "HVDC submarine",
        "SOURCE_DATASET": "KEPCO · mainland-Jeju HVDC interconnections",
        "SOURCE_URL": "https://www.kepco.co.kr/KEPCO_FILE/html/2025_01/202501.pdf",
        "SOURCE_DATE": "2025-01",
        "SOURCE_LICENSE": "Official publication terms; facts summarised with attribution",
        "GEOMETRY_CONFIDENCE": "schematic-terminal-locality-centroids",
        "NOTE": "KEPCO publica 91 km submarinos y 7 km terrestres; la recta no reproduce ese recorrido."
      }
    },
    {
      "type": "Feature",
      "geometry": {
        "type": "LineString",
        "coordinates": [[126.759, 37.038], [127.055, 37.006]]
      },
      "properties": {
        "REGION_KEY": "corea-del-sur",
        "ASSET_KIND": "model_corridor",
        "SOURCE_ID": "kr-kepco-bukdangjin-godeok-hvdc-2024",
        "SOURCE_CLASS": "official",
        "EVIDENCE": "modelled",
        "NAME": "HVDC Bukdangjin-Godeok",
        "FROM_NAME": "Convertidora Bukdangjin",
        "TO_NAME": "Convertidora Godeok",
        "VOLTAGE": 500,
        "CAPACITY_FORWARD_MW": 3000,
        "CAPACITY_CONTEXT": "Dos etapas de 1.500 MW; capacidad total publicada tras la terminación de mayo de 2024",
        "LENGTH_KM": 34.2,
        "STATUS": "operating",
        "LINE_TYPE": "HVDC underground",
        "SOURCE_DATASET": "KEPCO · Bukdangjin-Godeok HVDC completion",
        "SOURCE_URL": "https://home.kepco.co.kr/kepco/front/html/WZ/2024_06_10/news.html",
        "SOURCE_DATE": "2024-06",
        "SOURCE_LICENSE": "Official publication terms; facts summarised with attribution",
        "GEOMETRY_CONFIDENCE": "schematic-terminal-locality-centroids",
        "NOTE": "Los terminales, tensión, capacidad y longitud son oficiales; la recta no es la ruta del cable."
      }
    }
  ]
}
